CCSDS_OMM_VERS = 2.0
CREATION_DATE  = 
ORIGINATOR     = 

OBJECT_NAME    = COSMOS 2058
OBJECT_ID      = 1990-010A
CENTER_NAME    = EARTH
REF_FRAME      = TEME
TIME_SYSTEM    = UTC
MEAN_ELEMENT_THEORY = SGP/SGP4

EPOCH          = 2026-03-26T07:58:06.996288
MEAN_MOTION    = 15.11466302
ECCENTRICITY   = .0007438
INCLINATION    = 82.4683
RA_OF_ASC_NODE = 31.0282
ARG_OF_PERICENTER = 279.3565
MEAN_ANOMALY   = 80.6824

EPHEMERIS_TYPE = 0
CLASSIFICATION_TYPE = U
NORAD_CAT_ID   = 20465
ELEMENT_SET_NO = 999
REV_AT_EPOCH   = 94475
BSTAR          = .26507E-3
MEAN_MOTION_DOT = .4513E-4
MEAN_MOTION_DDOT = 0

CCSDS_OMM_VERS = 2.0
CREATION_DATE  = 
ORIGINATOR     = 

OBJECT_NAME    = SL-14 R/B
OBJECT_ID      = 1990-010B
CENTER_NAME    = EARTH
REF_FRAME      = TEME
TIME_SYSTEM    = UTC
MEAN_ELEMENT_THEORY = SGP/SGP4

EPOCH          = 2026-03-26T21:15:24.851520
MEAN_MOTION    = 14.83584250
ECCENTRICITY   = .0018512
INCLINATION    = 82.4994
RA_OF_ASC_NODE = 251.2310
ARG_OF_PERICENTER = 241.1835
MEAN_ANOMALY   = 118.7522

EPHEMERIS_TYPE = 0
CLASSIFICATION_TYPE = U
NORAD_CAT_ID   = 20466
ELEMENT_SET_NO = 999
REV_AT_EPOCH   = 93103
BSTAR          = .60266E-4
MEAN_MOTION_DOT = .521E-5
MEAN_MOTION_DDOT = 0

CCSDS_OMM_VERS = 2.0
CREATION_DATE  = 
ORIGINATOR     = 

OBJECT_NAME    = SL-14 R/B
OBJECT_ID      = 1990-018B
CENTER_NAME    = EARTH
REF_FRAME      = TEME
TIME_SYSTEM    = UTC
MEAN_ELEMENT_THEORY = SGP/SGP4

EPOCH          = 2026-03-26T17:13:12.286848
MEAN_MOTION    = 14.82161327
ECCENTRICITY   = .0017088
INCLINATION    = 82.5234
RA_OF_ASC_NODE = 207.1767
ARG_OF_PERICENTER = 40.1511
MEAN_ANOMALY   = 320.0962

EPHEMERIS_TYPE = 0
CLASSIFICATION_TYPE = U
NORAD_CAT_ID   = 20511
ELEMENT_SET_NO = 999
REV_AT_EPOCH   = 92510
BSTAR          = .52147E-4
MEAN_MOTION_DOT = .44E-5
MEAN_MOTION_DDOT = 0

CCSDS_OMM_VERS = 2.0
CREATION_DATE  = 
ORIGINATOR     = 

OBJECT_NAME    = HST
OBJECT_ID      = 1990-037B
CENTER_NAME    = EARTH
REF_FRAME      = TEME
TIME_SYSTEM    = UTC
MEAN_ELEMENT_THEORY = SGP/SGP4

EPOCH          = 2026-03-26T21:44:59.403840
MEAN_MOTION    = 15.29741799
ECCENTRICITY   = .0001594
INCLINATION    = 28.4722
RA_OF_ASC_NODE = 282.5324
ARG_OF_PERICENTER = 328.1979
MEAN_ANOMALY   = 31.8520

EPHEMERIS_TYPE = 0
CLASSIFICATION_TYPE = U
NORAD_CAT_ID   = 20580
ELEMENT_SET_NO = 999
REV_AT_EPOCH   = 77595
BSTAR          = .25588E-3
MEAN_MOTION_DOT = .782E-4
MEAN_MOTION_DDOT = 0

CCSDS_OMM_VERS = 2.0
CREATION_DATE  = 
ORIGINATOR     = 

OBJECT_NAME    = SL-16 R/B
OBJECT_ID      = 1990-046B
CENTER_NAME    = EARTH
REF_FRAME      = TEME
TIME_SYSTEM    = UTC
MEAN_ELEMENT_THEORY = SGP/SGP4

EPOCH          = 2026-03-26T21:00:26.895456
MEAN_MOTION    = 14.15014541
ECCENTRICITY   = .0016322
INCLINATION    = 70.9954
RA_OF_ASC_NODE = 261.8179
ARG_OF_PERICENTER = 277.1661
MEAN_ANOMALY   = 82.7606

EPHEMERIS_TYPE = 0
CLASSIFICATION_TYPE = U
NORAD_CAT_ID   = 20625
ELEMENT_SET_NO = 999
REV_AT_EPOCH   = 85082
BSTAR          = .12392E-3
MEAN_MOTION_DOT = .192E-5
MEAN_MOTION_DDOT = 0

CCSDS_OMM_VERS = 2.0
CREATION_DATE  = 
ORIGINATOR     = 

OBJECT_NAME    = COSMOS 2084
OBJECT_ID      = 1990-055A
CENTER_NAME    = EARTH
REF_FRAME      = TEME
TIME_SYSTEM    = UTC
MEAN_ELEMENT_THEORY = SGP/SGP4

EPOCH          = 2026-03-26T12:35:00.064320
MEAN_MOTION    = 15.05739159
ECCENTRICITY   = .0014427
INCLINATION    = 62.7892
RA_OF_ASC_NODE = 278.1559
ARG_OF_PERICENTER = 195.0903
MEAN_ANOMALY   = 164.9769

EPHEMERIS_TYPE = 0
CLASSIFICATION_TYPE = U
NORAD_CAT_ID   = 20663
ELEMENT_SET_NO = 999
REV_AT_EPOCH   = 93885
BSTAR          = .17229E-3
MEAN_MOTION_DOT = .2308E-4
MEAN_MOTION_DDOT = 0

CCSDS_OMM_VERS = 2.0
CREATION_DATE  = 
ORIGINATOR     = 

OBJECT_NAME    = SL-6 R/B(2)
OBJECT_ID      = 1990-055D
CENTER_NAME    = EARTH
REF_FRAME      = TEME
TIME_SYSTEM    = UTC
MEAN_ELEMENT_THEORY = SGP/SGP4

EPOCH          = 2026-03-26T17:30:31.368672
MEAN_MOTION    = 15.03674812
ECCENTRICITY   = .0027588
INCLINATION    = 62.7831
RA_OF_ASC_NODE = 195.8996
ARG_OF_PERICENTER = 350.9704
MEAN_ANOMALY   = 9.0896

EPHEMERIS_TYPE = 0
CLASSIFICATION_TYPE = U
NORAD_CAT_ID   = 20666
ELEMENT_SET_NO = 999
REV_AT_EPOCH   = 94075
BSTAR          = .14607E-3
MEAN_MOTION_DOT = .1823E-4
MEAN_MOTION_DDOT = 0

CCSDS_OMM_VERS = 2.0
CREATION_DATE  = 
ORIGINATOR     = 

OBJECT_NAME    = SL-8 R/B
OBJECT_ID      = 1990-078B
CENTER_NAME    = EARTH
REF_FRAME      = TEME
TIME_SYSTEM    = UTC
MEAN_ELEMENT_THEORY = SGP/SGP4

EPOCH          = 2026-03-26T21:48:56.494944
MEAN_MOTION    = 14.89584455
ECCENTRICITY   = .0358755
INCLINATION    = 82.9018
RA_OF_ASC_NODE = 235.8155
ARG_OF_PERICENTER = 315.9446
MEAN_ANOMALY   = 41.3686

EPHEMERIS_TYPE = 0
CLASSIFICATION_TYPE = U
NORAD_CAT_ID   = 20775
ELEMENT_SET_NO = 999
REV_AT_EPOCH   = 81186
BSTAR          = .3944E-3
MEAN_MOTION_DOT = .13317E-3
MEAN_MOTION_DDOT = 0

CCSDS_OMM_VERS = 2.0
CREATION_DATE  = 
ORIGINATOR     = 

OBJECT_NAME    = SL-8 R/B
OBJECT_ID      = 1991-006B
CENTER_NAME    = EARTH
REF_FRAME      = TEME
TIME_SYSTEM    = UTC
MEAN_ELEMENT_THEORY = SGP/SGP4

EPOCH          = 2026-03-26T15:24:46.884384
MEAN_MOTION    = 13.77496732
ECCENTRICITY   = .002199
INCLINATION    = 82.9449
RA_OF_ASC_NODE = 157.4427
ARG_OF_PERICENTER = 351.4058
MEAN_ANOMALY   = 173.4014

EPHEMERIS_TYPE = 0
CLASSIFICATION_TYPE = U
NORAD_CAT_ID   = 21088
ELEMENT_SET_NO = 999
REV_AT_EPOCH   = 76640
BSTAR          = .6261E-4
MEAN_MOTION_DOT = .78E-6
MEAN_MOTION_DDOT = 0

CCSDS_OMM_VERS = 2.0
CREATION_DATE  = 
ORIGINATOR     = 

OBJECT_NAME    = OKEAN-3
OBJECT_ID      = 1991-039A
CENTER_NAME    = EARTH
REF_FRAME      = TEME
TIME_SYSTEM    = UTC
MEAN_ELEMENT_THEORY = SGP/SGP4

EPOCH          = 2026-03-26T08:51:03.412800
MEAN_MOTION    = 15.04901773
ECCENTRICITY   = .0012332
INCLINATION    = 82.5165
RA_OF_ASC_NODE = 320.6838
ARG_OF_PERICENTER = 274.9268
MEAN_ANOMALY   = 85.0551

EPHEMERIS_TYPE = 0
CLASSIFICATION_TYPE = U
NORAD_CAT_ID   = 21397
ELEMENT_SET_NO = 999
REV_AT_EPOCH   = 86754
BSTAR          = .13841E-3
MEAN_MOTION_DOT = .1988E-4
MEAN_MOTION_DDOT = 0

CCSDS_OMM_VERS = 2.0
CREATION_DATE  = 
ORIGINATOR     = 

OBJECT_NAME    = COSMOS 2151
OBJECT_ID      = 1991-042A
CENTER_NAME    = EARTH
REF_FRAME      = TEME
TIME_SYSTEM    = UTC
MEAN_ELEMENT_THEORY = SGP/SGP4

EPOCH          = 2026-03-26T21:25:12.222912
MEAN_MOTION    = 15.00176126
ECCENTRICITY   = .0012649
INCLINATION    = 82.4944
RA_OF_ASC_NODE = 67.0765
ARG_OF_PERICENTER = 9.7232
MEAN_ANOMALY   = 350.4234

EPHEMERIS_TYPE = 0
CLASSIFICATION_TYPE = U
NORAD_CAT_ID   = 21422
ELEMENT_SET_NO = 999
REV_AT_EPOCH   = 86577
BSTAR          = .21684E-3
MEAN_MOTION_DOT = .2738E-4
MEAN_MOTION_DDOT = 0

CCSDS_OMM_VERS = 2.0
CREATION_DATE  = 
ORIGINATOR     = 

OBJECT_NAME    = SL-14 R/B
OBJECT_ID      = 1991-042B
CENTER_NAME    = EARTH
REF_FRAME      = TEME
TIME_SYSTEM    = UTC
MEAN_ELEMENT_THEORY = SGP/SGP4

EPOCH          = 2026-03-26T16:57:33.001344
MEAN_MOTION    = 14.81846195
ECCENTRICITY   = .0017033
INCLINATION    = 82.4954
RA_OF_ASC_NODE = 204.2280
ARG_OF_PERICENTER = 180.3166
MEAN_ANOMALY   = 179.8041

EPHEMERIS_TYPE = 0
CLASSIFICATION_TYPE = U
NORAD_CAT_ID   = 21423
ELEMENT_SET_NO = 999
REV_AT_EPOCH   = 85559
BSTAR          = .55142E-4
MEAN_MOTION_DOT = .46E-5
MEAN_MOTION_DDOT = 0

